[{"OBJECT_NAME":"STARLINK-30224","OBJECT_ID":"2023-102N","EPOCH":"2025-08-06T19:03:28.334016","MEAN_MOTION":15.02531202,"ECCENTRICITY":0.00011947,"INCLINATION":43.0038,"RA_OF_ASC_NODE":336.2891,"ARG_OF_PERICENTER":269.199,"MEAN_ANOMALY":90.8715,"EPHEMERIS_TYPE":0,"CLASSIFICATION_TYPE":"U","NORAD_CAT_ID":57416,"ELEMENT_SET_NO":999,"REV_AT_EPOCH":11391,"BSTAR":-0.00013721514,"MEAN_MOTION_DOT":-2.056e-5,"MEAN_MOTION_DDOT":0},{"OBJECT_NAME":"STARLINK-30043","OBJECT_ID":"2023-102P","EPOCH":"2025-08-06T17:18:08.828064","MEAN_MOTION":15.02537566,"ECCENTRICITY":0.00012142,"INCLINATION":43.0035,"RA_OF_ASC_NODE":336.6006,"ARG_OF_PERICENTER":270.0196,"MEAN_ANOMALY":90.0507,"EPHEMERIS_TYPE":0,"CLASSIFICATION_TYPE":"U","NORAD_CAT_ID":57417,"ELEMENT_SET_NO":999,"REV_AT_EPOCH":11390,"BSTAR":4.0468116e-5,"MEAN_MOTION_DOT":3.43e-6,"MEAN_MOTION_DDOT":0},{"OBJECT_NAME":"STARLINK-30221","OBJECT_ID":"2023-102Q","EPOCH":"2025-08-06T17:22:56.902944","MEAN_MOTION":15.02537238,"ECCENTRICITY":0.00013041,"INCLINATION":43.0045,"RA_OF_ASC_NODE":336.6259,"ARG_OF_PERICENTER":267.6969,"MEAN_ANOMALY":92.3724,"EPHEMERIS_TYPE":0,"CLASSIFICATION_TYPE":"U","NORAD_CAT_ID":57418,"ELEMENT_SET_NO":999,"REV_AT_EPOCH":11390,"BSTAR":-6.3331102e-5,"MEAN_MOTION_DOT":-1.059e-5,"MEAN_MOTION_DDOT":0},{"OBJECT_NAME":"STARLINK-30189","OBJECT_ID":"2023-105A","EPOCH":"2025-08-06T19:46:16.443552","MEAN_MOTION":15.02538752,"ECCENTRICITY":0.0001229,"INCLINATION":43.0042,"RA_OF_ASC_NODE":349.652,"ARG_OF_PERICENTER":268.9099,"MEAN_ANOMALY":91.1603,"EPHEMERIS_TYPE":0,"CLASSIFICATION_TYPE":"U","NORAD_CAT_ID":57430,"ELEMENT_SET_NO":999,"REV_AT_EPOCH":11319,"BSTAR":-0.00014389913,"MEAN_MOTION_DOT":-2.147e-5,"MEAN_MOTION_DDOT":0},{"OBJECT_NAME":"STARLINK-30188","OBJECT_ID":"2023-105C","EPOCH":"2025-08-06T18:00:57.553632","MEAN_MOTION":15.02537909,"ECCENTRICITY":0.00011417,"INCLINATION":43.004,"RA_OF_ASC_NODE":349.9606,"ARG_OF_PERICENTER":267.4222,"MEAN_ANOMALY":92.649,"EPHEMERIS_TYPE":0,"CLASSIFICATION_TYPE":"U","NORAD_CAT_ID":57432,"ELEMENT_SET_NO":999,"REV_AT_EPOCH":11319,"BSTAR":1.4206267e-5,"MEAN_MOTION_DOT":-1.2e-7,"MEAN_MOTION_DDOT":0},{"OBJECT_NAME":"STARLINK-30105","OBJECT_ID":"2023-105D","EPOCH":"2025-08-06T13:20:54.880800","MEAN_MOTION":15.27573133,"ECCENTRICITY":0.00011499,"INCLINATION":43.0008,"RA_OF_ASC_NODE":165.7895,"ARG_OF_PERICENTER":271.6765,"MEAN_ANOMALY":88.3954,"EPHEMERIS_TYPE":0,"CLASSIFICATION_TYPE":"U","NORAD_CAT_ID":57433,"ELEMENT_SET_NO":999,"REV_AT_EPOCH":11542,"BSTAR":-2.4011211e-5,"MEAN_MOTION_DOT":-9.23e-6,"MEAN_MOTION_DDOT":0},{"OBJECT_NAME":"STARLINK-30102","OBJECT_ID":"2023-105E","EPOCH":"2025-08-06T17:51:22.458816","MEAN_MOTION":15.02535664,"ECCENTRICITY":0.00010642,"INCLINATION":43.0042,"RA_OF_ASC_NODE":349.9058,"ARG_OF_PERICENTER":267.2177,"MEAN_ANOMALY":92.8544,"EPHEMERIS_TYPE":0,"CLASSIFICATION_TYPE":"U","NORAD_CAT_ID":57434,"ELEMENT_SET_NO":999,"REV_AT_EPOCH":11317,"BSTAR":-2.4372207e-5,"MEAN_MOTION_DOT":-5.33e-6,"MEAN_MOTION_DDOT":0},{"OBJECT_NAME":"STARLINK-30183","OBJECT_ID":"2023-105G","EPOCH":"2025-08-06T16:58:22.908576","MEAN_MOTION":15.21935545,"ECCENTRICITY":0.00190562,"INCLINATION":42.9945,"RA_OF_ASC_NODE":331.7873,"ARG_OF_PERICENTER":339.5276,"MEAN_ANOMALY":20.4809,"EPHEMERIS_TYPE":0,"CLASSIFICATION_TYPE":"U","NORAD_CAT_ID":57436,"ELEMENT_SET_NO":999,"REV_AT_EPOCH":11344,"BSTAR":0.0020776482,"MEAN_MOTION_DOT":0.00048572,"MEAN_MOTION_DDOT":0},{"OBJECT_NAME":"STARLINK-30237","OBJECT_ID":"2023-105H","EPOCH":"2025-08-06T17:36:57.955104","MEAN_MOTION":15.02546967,"ECCENTRICITY":0.00014121,"INCLINATION":43.0052,"RA_OF_ASC_NODE":349.8341,"ARG_OF_PERICENTER":267.8472,"MEAN_ANOMALY":92.2208,"EPHEMERIS_TYPE":0,"CLASSIFICATION_TYPE":"U","NORAD_CAT_ID":57437,"ELEMENT_SET_NO":999,"REV_AT_EPOCH":11322,"BSTAR":0.00017570114,"MEAN_MOTION_DOT":2.171e-5,"MEAN_MOTION_DDOT":0},{"OBJECT_NAME":"STARLINK-30158","OBJECT_ID":"2023-105J","EPOCH":"2025-08-06T17:41:47.099616","MEAN_MOTION":15.02530781,"ECCENTRICITY":0.00013077,"INCLINATION":43.0067,"RA_OF_ASC_NODE":349.86,"ARG_OF_PERICENTER":266.919,"MEAN_ANOMALY":93.1503,"EPHEMERIS_TYPE":0,"CLASSIFICATION_TYPE":"U","NORAD_CAT_ID":57438,"ELEMENT_SET_NO":999,"REV_AT_EPOCH":11322,"BSTAR":1.4219673e-5,"MEAN_MOTION_DOT":-1.2e-7,"MEAN_MOTION_DDOT":0},{"OBJECT_NAME":"STARLINK-30159","OBJECT_ID":"2023-105L","EPOCH":"2025-08-06T19:07:54.486624","MEAN_MOTION":15.02543606,"ECCENTRICITY":0.00011652,"INCLINATION":43.0042,"RA_OF_ASC_NODE":349.4458,"ARG_OF_PERICENTER":264.2366,"MEAN_ANOMALY":95.8344,"EPHEMERIS_TYPE":0,"CLASSIFICATION_TYPE":"U","NORAD_CAT_ID":57440,"ELEMENT_SET_NO":999,"REV_AT_EPOCH":11307,"BSTAR":-0.00019049593,"MEAN_MOTION_DOT":-2.776e-5,"MEAN_MOTION_DDOT":0},{"OBJECT_NAME":"STARLINK-30160","OBJECT_ID":"2023-105M","EPOCH":"2025-08-06T20:38:51.346464","MEAN_MOTION":15.0253426,"ECCENTRICITY":0.000119,"INCLINATION":43.0034,"RA_OF_ASC_NODE":349.0628,"ARG_OF_PERICENTER":268.6194,"MEAN_ANOMALY":91.4512,"EPHEMERIS_TYPE":0,"CLASSIFICATION_TYPE":"U","NORAD_CAT_ID":57441,"ELEMENT_SET_NO":999,"REV_AT_EPOCH":11308,"BSTAR":-6.675271e-6,"MEAN_MOTION_DOT":-2.94e-6,"MEAN_MOTION_DDOT":0},{"OBJECT_NAME":"STARLINK-30146","OBJECT_ID":"2023-105N","EPOCH":"2025-08-06T17:22:36.171264","MEAN_MOTION":15.02532206,"ECCENTRICITY":0.00014453,"INCLINATION":43.0047,"RA_OF_ASC_NODE":349.7589,"ARG_OF_PERICENTER":264.1531,"MEAN_ANOMALY":95.9147,"EPHEMERIS_TYPE":0,"CLASSIFICATION_TYPE":"U","NORAD_CAT_ID":57442,"ELEMENT_SET_NO":999,"REV_AT_EPOCH":11328,"BSTAR":5.079079e-5,"MEAN_MOTION_DOT":4.82e-6,"MEAN_MOTION_DDOT":0},{"OBJECT_NAME":"STARLINK-30197","OBJECT_ID":"2023-105P","EPOCH":"2025-08-06T17:17:48.419520","MEAN_MOTION":15.02541623,"ECCENTRICITY":0.0001262,"INCLINATION":43.0074,"RA_OF_ASC_NODE":349.7366,"ARG_OF_PERICENTER":272.8156,"MEAN_ANOMALY":87.2542,"EPHEMERIS_TYPE":0,"CLASSIFICATION_TYPE":"U","NORAD_CAT_ID":57443,"ELEMENT_SET_NO":999,"REV_AT_EPOCH":11322,"BSTAR":-7.7672689e-5,"MEAN_MOTION_DOT":-1.253e-5,"MEAN_MOTION_DDOT":0},{"OBJECT_NAME":"STARLINK-30181","OBJECT_ID":"2023-105Q","EPOCH":"2025-08-06T18:34:22.017216","MEAN_MOTION":15.02538745,"ECCENTRICITY":0.0001544,"INCLINATION":43.0055,"RA_OF_ASC_NODE":349.2728,"ARG_OF_PERICENTER":265.6652,"MEAN_ANOMALY":94.4014,"EPHEMERIS_TYPE":0,"CLASSIFICATION_TYPE":"U","NORAD_CAT_ID":57444,"ELEMENT_SET_NO":999,"REV_AT_EPOCH":11329,"BSTAR":0.00010878221,"MEAN_MOTION_DOT":1.266e-5,"MEAN_MOTION_DDOT":0},{"OBJECT_NAME":"STARLINK-30215","OBJECT_ID":"2023-105R","EPOCH":"2025-08-06T20:16:28.807104","MEAN_MOTION":15.02530693,"ECCENTRICITY":0.00012097,"INCLINATION":43.0039,"RA_OF_ASC_NODE":348.9448,"ARG_OF_PERICENTER":285.8411,"MEAN_ANOMALY":74.2298,"EPHEMERIS_TYPE":0,"CLASSIFICATION_TYPE":"U","NORAD_CAT_ID":57445,"ELEMENT_SET_NO":999,"REV_AT_EPOCH":11308,"BSTAR":0.00010646856,"MEAN_MOTION_DOT":1.235e-5,"MEAN_MOTION_DDOT":0}]
