STARLINK-30224          
1 57416U 23102N   25218.79407794 -.00002056  00000+0 -13722-3 0  9998
2 57416  43.0038 336.2891 0001194 269.1990  90.8715 15.02531202113912
STARLINK-30043          
1 57417U 23102P   25218.72093551  .00000343  00000+0  40468-4 0  9997
2 57417  43.0035 336.6006 0001214 270.0196  90.0507 15.02537566113903
STARLINK-30221          
1 57418U 23102Q   25218.72426971 -.00001059  00000+0 -63331-4 0  9995
2 57418  43.0045 336.6259 0001304 267.6969  92.3724 15.02537238113907
STARLINK-30189          
1 57430U 23105A   25218.82380143 -.00002147  00000+0 -14390-3 0  9992
2 57430  43.0042 349.6520 0001229 268.9099  91.1603 15.02538752113193
STARLINK-30188          
1 57432U 23105C   25218.75066613 -.00000012  00000+0  14206-4 0  9994
2 57432  43.0040 349.9606 0001141 267.4222  92.6490 15.02537909113199
STARLINK-30105          
1 57433U 23105D   25218.55619075 -.00000923  00000+0 -24011-4 0  9996
2 57433  43.0008 165.7895 0001149 271.6765  88.3954 15.27573133115426
STARLINK-30102          
1 57434U 23105E   25218.74400994 -.00000533  00000+0 -24372-4 0  9993
2 57434  43.0042 349.9058 0001064 267.2177  92.8544 15.02535664113171
STARLINK-30183          
1 57436U 23105G   25218.70720959  .00048572  00000+0  20776-2 0  9992
2 57436  42.9945 331.7873 0019056 339.5276  20.4809 15.21935545113444
STARLINK-30237          
1 57437U 23105H   25218.73400411  .00002171  00000+0  17570-3 0  9998
2 57437  43.0052 349.8341 0001412 267.8472  92.2208 15.02546967113225
STARLINK-30158          
1 57438U 23105J   25218.73735069 -.00000012  00000+0  14220-4 0  9992
2 57438  43.0067 349.8600 0001307 266.9190  93.1503 15.02530781113225
STARLINK-30159          
1 57440U 23105L   25218.79715841 -.00002776  00000+0 -19050-3 0  9992
2 57440  43.0042 349.4458 0001165 264.2366  95.8344 15.02543606113071
STARLINK-30160          
1 57441U 23105M   25218.86031651 -.00000294  00000+0 -66753-5 0  9998
2 57441  43.0034 349.0628 0001190 268.6194  91.4512 15.02534260113089
STARLINK-30146          
1 57442U 23105N   25218.72402976  .00000482  00000+0  50791-4 0  9997
2 57442  43.0047 349.7589 0001445 264.1531  95.9147 15.02532206113289
STARLINK-30197          
1 57443U 23105P   25218.72069930 -.00001253  00000+0 -77673-4 0  9994
2 57443  43.0074 349.7366 0001262 272.8156  87.2542 15.02541623113229
STARLINK-30181          
1 57444U 23105Q   25218.77386594  .00001266  00000+0  10878-3 0  9993
2 57444  43.0055 349.2728 0001544 265.6652  94.4014 15.02538745113292
STARLINK-30215          
1 57445U 23105R   25218.84477786  .00001235  00000+0  10647-3 0  9996
2 57445  43.0039 348.9448 0001209 285.8411  74.2298 15.02530693113086
